{
"type": "FeatureCollection",
"name": "vizag_osm",
"crs": { "type": "name", "properties": { "name": "urn:ogc:def:crs:OGC:1.3:CRS84" } },
"features": [
{ "type": "Feature", "properties": { "bbox_west": 82.9949498, "bbox_south": 17.5461762, "bbox_east": 83.4563863, "bbox_north": 17.9415117, "place_id": 246771414, "osm_type": "relation", "osm_id": 17493324, "lat": 17.7438675, "lon": 83.2534917, "class": "boundary", "type": "local_authority", "place_rank": 25, "importance": 0.37817846516583514, "addresstype": "local_authority", "name": "Visakhapatnam", "display_name": "Visakhapatnam, Visakhapatnam Urban, Visakhapatnam, Andhra Pradesh, India" }, "geometry": { "type": "Polygon", "coordinates": [ [ [ 82.9949498, 17.6790261 ], [ 82.9979539, 17.6769408 ], [ 82.9971814, 17.6748963 ], [ 82.9974389, 17.6733016 ], [ 82.9988122, 17.671666 ], [ 82.9969668, 17.6711753 ], [ 82.9991984, 17.6695806 ], [ 82.9981256, 17.6678632 ], [ 82.9996276, 17.6678223 ], [ 82.9996276, 17.6663502 ], [ 82.9991126, 17.6663093 ], [ 82.9991555, 17.6649599 ], [ 83.0005288, 17.6637331 ], [ 83.0016446, 17.6625472 ], [ 83.0001426, 17.6555136 ], [ 83.0146909, 17.6535916 ], [ 83.0135751, 17.6479481 ], [ 83.0222439, 17.6470484 ], [ 83.0243897, 17.6463941 ], [ 83.0277371, 17.6474574 ], [ 83.0329728, 17.6483571 ], [ 83.0406117, 17.6461487 ], [ 83.0448174, 17.6442675 ], [ 83.0466198, 17.6416501 ], [ 83.0488514, 17.6408322 ], [ 83.0500531, 17.6496657 ], [ 83.0538296, 17.6548185 ], [ 83.0572629, 17.6546549 ], [ 83.0637002, 17.652692 ], [ 83.0645585, 17.642468 ], [ 83.0658459, 17.6473756 ], [ 83.0765748, 17.653837 ], [ 83.0773472, 17.6585807 ], [ 83.0763173, 17.6589896 ], [ 83.0776906, 17.6607071 ], [ 83.0776047, 17.6630789 ], [ 83.078978, 17.6665138 ], [ 83.0818104, 17.6663502 ], [ 83.0813813, 17.6643056 ], [ 83.0836129, 17.6647963 ], [ 83.0833554, 17.6672498 ], [ 83.084557, 17.6670863 ], [ 83.0842995, 17.6710936 ], [ 83.0857586, 17.6712571 ], [ 83.0866169, 17.6710118 ], [ 83.0884194, 17.6725656 ], [ 83.0893421, 17.6717273 ], [ 83.0913806, 17.6707664 ], [ 83.095243, 17.6702348 ], [ 83.0964017, 17.6695806 ], [ 83.0972814, 17.6695806 ], [ 83.0971956, 17.6701121 ], [ 83.0984616, 17.670153 ], [ 83.0988264, 17.6729336 ], [ 83.1011438, 17.6729336 ], [ 83.1016373, 17.6721975 ], [ 83.103075, 17.6717478 ], [ 83.1040835, 17.6714206 ], [ 83.1042337, 17.6697237 ], [ 83.1053924, 17.6662684 ], [ 83.106594, 17.6555545 ], [ 83.1059503, 17.6496657 ], [ 83.1023883, 17.6480708 ], [ 83.098526, 17.6538779 ], [ 83.0971956, 17.6524057 ], [ 83.0972814, 17.6449218 ], [ 83.0993843, 17.6427134 ], [ 83.1048345, 17.6429179 ], [ 83.1073236, 17.6389917 ], [ 83.1083965, 17.6381329 ], [ 83.1086111, 17.6355563 ], [ 83.1100702, 17.6353518 ], [ 83.1101131, 17.6307302 ], [ 83.1108856, 17.6304439 ], [ 83.1107568, 17.6286852 ], [ 83.1098556, 17.6279081 ], [ 83.1097269, 17.6266811 ], [ 83.1109714, 17.6257813 ], [ 83.1142759, 17.6269265 ], [ 83.1162071, 17.6272946 ], [ 83.1328153, 17.6249224 ], [ 83.1332016, 17.6239408 ], [ 83.133459, 17.6213231 ], [ 83.131442, 17.6120382 ], [ 83.1255197, 17.6047162 ], [ 83.125391, 17.598703 ], [ 83.1221723, 17.5944896 ], [ 83.1181812, 17.5889669 ], [ 83.1183099, 17.5820532 ], [ 83.1191682, 17.5768984 ], [ 83.1196644, 17.5760504 ], [ 83.1173229, 17.5655246 ], [ 83.1151342, 17.5557458 ], [ 83.1135466, 17.5502847 ], [ 83.1127257, 17.5461762 ], [ 83.1155688, 17.5472042 ], [ 83.117044, 17.5476185 ], [ 83.1179519, 17.5478691 ], [ 83.1180672, 17.5479203 ], [ 83.1198066, 17.5486108 ], [ 83.1218103, 17.5492527 ], [ 83.1226176, 17.5494752 ], [ 83.1235832, 17.5497667 ], [ 83.1245971, 17.550089 ], [ 83.1266838, 17.5507078 ], [ 83.1288993, 17.5513369 ], [ 83.1306052, 17.5518484 ], [ 83.1322414, 17.552319 ], [ 83.1331882, 17.5525619 ], [ 83.1342316, 17.5529327 ], [ 83.1351596, 17.5532396 ], [ 83.1359804, 17.5535145 ], [ 83.1365088, 17.5536718 ], [ 83.1370653, 17.5537255 ], [ 83.1376675, 17.5537536 ], [ 83.1385446, 17.5538329 ], [ 83.139419, 17.5540579 ], [ 83.139828, 17.5542216 ], [ 83.1400372, 17.5543405 ], [ 83.1401619, 17.5544339 ], [ 83.1402826, 17.5545911 ], [ 83.1405867, 17.5546557 ], [ 83.1412033, 17.5547714 ], [ 83.1418571, 17.5549453 ], [ 83.1427664, 17.5551985 ], [ 83.1433859, 17.5554159 ], [ 83.1438275, 17.5555331 ], [ 83.1445688, 17.5557125 ], [ 83.1459743, 17.5560322 ], [ 83.1469211, 17.5562674 ], [ 83.1482139, 17.5566152 ], [ 83.1496784, 17.5570602 ], [ 83.1505153, 17.557298 ], [ 83.1513897, 17.5575422 ], [ 83.1521353, 17.5577327 ], [ 83.1530258, 17.5579655 ], [ 83.1539243, 17.5582097 ], [ 83.1544447, 17.5583772 ], [ 83.1548175, 17.5585025 ], [ 83.1550468, 17.5586112 ], [ 83.1559306, 17.5589001 ], [ 83.1567353, 17.5591699 ], [ 83.1581368, 17.5595931 ], [ 83.1584948, 17.5597082 ], [ 83.158979, 17.559932 ], [ 83.159667, 17.5601685 ], [ 83.1599861, 17.5602823 ], [ 83.1605735, 17.5604741 ], [ 83.1609383, 17.5605585 ], [ 83.1613997, 17.5605892 ], [ 83.1617282, 17.5605393 ], [ 83.1618731, 17.5604664 ], [ 83.1619857, 17.5603987 ], [ 83.1621145, 17.5604153 ], [ 83.1622016, 17.5604818 ], [ 83.1624216, 17.5606633 ], [ 83.1626308, 17.5609318 ], [ 83.1628185, 17.5612003 ], [ 83.1632343, 17.5617271 ], [ 83.1636849, 17.5621133 ], [ 83.1639209, 17.5623025 ], [ 83.1642374, 17.5625173 ], [ 83.1645338, 17.5626349 ], [ 83.1647953, 17.5626541 ], [ 83.1649321, 17.5626656 ], [ 83.1649911, 17.5626886 ], [ 83.1650341, 17.5627193 ], [ 83.1651011, 17.5628088 ], [ 83.1656027, 17.5632026 ], [ 83.1658655, 17.5633407 ], [ 83.1661043, 17.5634456 ], [ 83.1663859, 17.5635504 ], [ 83.1665522, 17.5636604 ], [ 83.1667024, 17.5638317 ], [ 83.1671436, 17.5643585 ], [ 83.1677967, 17.5650694 ], [ 83.168301, 17.5654964 ], [ 83.1689849, 17.5660078 ], [ 83.1697762, 17.5666522 ], [ 83.1700632, 17.5668108 ], [ 83.1703287, 17.5669156 ], [ 83.1705688, 17.5669143 ], [ 83.1707498, 17.5667673 ], [ 83.170951, 17.5666394 ], [ 83.1712139, 17.5666497 ], [ 83.1715465, 17.5667008 ], [ 83.1717007, 17.5667839 ], [ 83.1718093, 17.5669565 ], [ 83.1719998, 17.5671061 ], [ 83.1720145, 17.5671752 ], [ 83.171926, 17.5674884 ], [ 83.1718509, 17.5675319 ], [ 83.1717959, 17.5675869 ], [ 83.1717946, 17.56767 ], [ 83.1717999, 17.5677556 ], [ 83.1717141, 17.5678681 ], [ 83.1717181, 17.5680152 ], [ 83.1717456, 17.568113 ], [ 83.1718093, 17.5681392 ], [ 83.1718271, 17.5681705 ], [ 83.1718174, 17.5681986 ], [ 83.1717704, 17.5682287 ], [ 83.171749, 17.5682479 ], [ 83.1717523, 17.568267 ], [ 83.1717704, 17.5682837 ], [ 83.1718261, 17.5683028 ], [ 83.1718542, 17.5683195 ], [ 83.1718663, 17.5683466 ], [ 83.1718616, 17.5683757 ], [ 83.1718241, 17.5684013 ], [ 83.1717154, 17.568409 ], [ 83.1716792, 17.5684205 ], [ 83.1716665, 17.568446 ], [ 83.1716859, 17.5684959 ], [ 83.171753, 17.5685956 ], [ 83.1718093, 17.5688053 ], [ 83.1718039, 17.5689306 ], [ 83.1717798, 17.5689613 ], [ 83.1717476, 17.5689639 ], [ 83.1716832, 17.5689511 ], [ 83.1716081, 17.5688897 ], [ 83.1714231, 17.5686621 ], [ 83.1710717, 17.5683016 ], [ 83.1707767, 17.5680842 ], [ 83.170597, 17.5680548 ], [ 83.1704628, 17.5681072 ], [ 83.1703395, 17.5683246 ], [ 83.1702644, 17.5686084 ], [ 83.170141, 17.5690431 ], [ 83.1702241, 17.569731 ], [ 83.1704548, 17.5706208 ], [ 83.170782, 17.5712729 ], [ 83.1713963, 17.5719556 ], [ 83.172217, 17.5725642 ], [ 83.1729633, 17.5731671 ], [ 83.1737504, 17.5737038 ], [ 83.1743654, 17.5740601 ], [ 83.175142, 17.5745037 ], [ 83.1760499, 17.5750011 ], [ 83.1765984, 17.5753079 ], [ 83.1774259, 17.57574 ], [ 83.1786677, 17.5763614 ], [ 83.179239, 17.5766222 ], [ 83.1801067, 17.5769827 ], [ 83.1809221, 17.5773676 ], [ 83.181991, 17.5778368 ], [ 83.183265, 17.5783891 ], [ 83.1848824, 17.5791664 ], [ 83.1866929, 17.5799667 ], [ 83.1897747, 17.5812759 ], [ 83.1908074, 17.5817029 ], [ 83.1920573, 17.5821963 ], [ 83.1929961, 17.5825492 ], [ 83.1941092, 17.5829967 ], [ 83.194643, 17.5832063 ], [ 83.1951043, 17.5833981 ], [ 83.1964052, 17.5839606 ], [ 83.1974915, 17.584449 ], [ 83.1981996, 17.5847865 ], [ 83.1989077, 17.5851035 ], [ 83.1996345, 17.5854052 ], [ 83.200053, 17.5855561 ], [ 83.2004043, 17.5857248 ], [ 83.2007691, 17.5859192 ], [ 83.2011729, 17.5861406 ], [ 83.2017798, 17.5863773 ], [ 83.2029229, 17.586924 ], [ 83.2035745, 17.5871967 ], [ 83.2051756, 17.5879812 ], [ 83.2057449, 17.5882484 ], [ 83.2067236, 17.5887214 ], [ 83.2072922, 17.5890104 ], [ 83.207885, 17.5892993 ], [ 83.2082659, 17.5895089 ], [ 83.2088399, 17.5898106 ], [ 83.2094139, 17.5901482 ], [ 83.2099208, 17.5904703 ], [ 83.2101206, 17.5905905 ], [ 83.210177, 17.5906058 ], [ 83.2102373, 17.5905905 ], [ 83.2103004, 17.5905598 ], [ 83.2104117, 17.5905636 ], [ 83.2105525, 17.5905419 ], [ 83.2106812, 17.5904971 ], [ 83.2107992, 17.5904345 ], [ 83.2108784, 17.5904192 ], [ 83.2109347, 17.5904217 ], [ 83.2109763, 17.5904435 ], [ 83.2110246, 17.5904741 ], [ 83.2110266, 17.5904895 ], [ 83.2109474, 17.5905304 ], [ 83.2109374, 17.5905502 ], [ 83.2109669, 17.5905534 ], [ 83.2111131, 17.5905393 ], [ 83.2111976, 17.5905381 ], [ 83.21127, 17.59057 ], [ 83.2114068, 17.5906519 ], [ 83.2115778, 17.590756 ], [ 83.2116897, 17.5908026 ], [ 83.2118399, 17.5908461 ], [ 83.2119124, 17.5908756 ], [ 83.2119941, 17.5909165 ], [ 83.212076, 17.5909408 ], [ 83.2121343, 17.5909292 ], [ 83.21219, 17.5909197 ], [ 83.2122403, 17.590935 ], [ 83.2122879, 17.5909612 ], [ 83.2123335, 17.5909561 ], [ 83.2123965, 17.5909075 ], [ 83.2124367, 17.5908871 ], [ 83.2124971, 17.5908564 ], [ 83.2125239, 17.5908647 ], [ 83.212536, 17.5908858 ], [ 83.2125642, 17.5909394 ], [ 83.2126299, 17.5909817 ], [ 83.2126996, 17.5909842 ], [ 83.2127841, 17.5909497 ], [ 83.2128417, 17.5909612 ], [ 83.2129128, 17.5910161 ], [ 83.2130134, 17.591043 ], [ 83.2130925, 17.5910724 ], [ 83.2131395, 17.5911402 ], [ 83.2131636, 17.5912361 ], [ 83.2131693, 17.5912706 ], [ 83.2131676, 17.5913076 ], [ 83.2131408, 17.5913479 ], [ 83.2131247, 17.5913601 ], [ 83.213123, 17.5913754 ], [ 83.2131287, 17.591386 ], [ 83.2131422, 17.5913907 ], [ 83.2132106, 17.5914074 ], [ 83.2132763, 17.5914291 ], [ 83.2133219, 17.5914623 ], [ 83.2133487, 17.5915007 ], [ 83.2133863, 17.5916029 ], [ 83.2133876, 17.5916745 ], [ 83.213352, 17.5917365 ], [ 83.213289, 17.5917544 ], [ 83.2132575, 17.5917807 ], [ 83.2132461, 17.5918094 ], [ 83.2132601, 17.5918528 ], [ 83.2133057, 17.5919558 ], [ 83.2133085, 17.5920274 ], [ 83.2132789, 17.5920951 ], [ 83.2132709, 17.5922089 ], [ 83.2132267, 17.5923265 ], [ 83.2131744, 17.5923955 ], [ 83.2131408, 17.5924774 ], [ 83.2131609, 17.5925707 ], [ 83.2132119, 17.5926615 ], [ 83.213346, 17.59282 ], [ 83.2135887, 17.5930948 ], [ 83.2138167, 17.5933058 ], [ 83.2140287, 17.5935116 ], [ 83.2141883, 17.5936279 ], [ 83.2143424, 17.5937084 ], [ 83.2145731, 17.5937506 ], [ 83.2147381, 17.5937545 ], [ 83.2148622, 17.5937557 ], [ 83.214903, 17.5937743 ], [ 83.2149191, 17.5938222 ], [ 83.2149218, 17.5938823 ], [ 83.2149433, 17.5939756 ], [ 83.2150559, 17.5941968 ], [ 83.2151109, 17.5942837 ], [ 83.2151887, 17.5943643 ], [ 83.2152718, 17.5944154 ], [ 83.2153603, 17.5944614 ], [ 83.215473, 17.5944934 ], [ 83.2155092, 17.5945215 ], [ 83.2155293, 17.5945509 ], [ 83.2155548, 17.5946314 ], [ 83.2155789, 17.5948411 ], [ 83.2156178, 17.5950674 ], [ 83.2156581, 17.5952821 ], [ 83.2156715, 17.595479 ], [ 83.215646, 17.5956209 ], [ 83.215591, 17.595741 ], [ 83.2154448, 17.5959264 ], [ 83.2154328, 17.5960645 ], [ 83.2154609, 17.5962051 ], [ 83.2154207, 17.5963611 ], [ 83.2154113, 17.5965439 ], [ 83.215524, 17.5968519 ], [ 83.2157426, 17.5972048 ], [ 83.2159317, 17.597454 ], [ 83.2162374, 17.5978209 ], [ 83.2166974, 17.5982875 ], [ 83.2171816, 17.5986979 ], [ 83.2174578, 17.5989229 ], [ 83.2177368, 17.5991363 ], [ 83.2181203, 17.5994368 ], [ 83.2182732, 17.5995096 ], [ 83.2183751, 17.5995812 ], [ 83.2184382, 17.5996438 ], [ 83.2185414, 17.599741 ], [ 83.2187614, 17.5998944 ], [ 83.2189237, 17.5999634 ], [ 83.219263, 17.6001552 ], [ 83.2195634, 17.6004057 ], [ 83.2199306, 17.6006366 ], [ 83.2211351, 17.6014386 ], [ 83.2217789, 17.6017965 ], [ 83.2219103, 17.6018426 ], [ 83.2221007, 17.6018272 ], [ 83.2221866, 17.6018477 ], [ 83.222267, 17.6019551 ], [ 83.2224092, 17.6019806 ], [ 83.2225352, 17.6019704 ], [ 83.2226157, 17.6020318 ], [ 83.2230144, 17.6023727 ], [ 83.2237744, 17.6029061 ], [ 83.2243645, 17.6033203 ], [ 83.2250673, 17.6038009 ], [ 83.2256332, 17.6040847 ], [ 83.2258049, 17.6041895 ], [ 83.2260275, 17.6042355 ], [ 83.2261965, 17.6042177 ], [ 83.2262903, 17.6041384 ], [ 83.2263386, 17.6040233 ], [ 83.2263842, 17.6038521 ], [ 83.2265314, 17.6037819 ], [ 83.2266471, 17.603806 ], [ 83.2267839, 17.6037651 ], [ 83.2268643, 17.6037114 ], [ 83.2270065, 17.6037063 ], [ 83.2270065, 17.6037549 ], [ 83.2269609, 17.6038521 ], [ 83.2269824, 17.6039006 ], [ 83.2270447, 17.6038776 ], [ 83.227091, 17.6038955 ], [ 83.2270997, 17.6039614 ], [ 83.2270521, 17.6040157 ], [ 83.2269341, 17.6041103 ], [ 83.2268187, 17.604141 ], [ 83.2267222, 17.6041435 ], [ 83.2266122, 17.6041972 ], [ 83.2265854, 17.604435 ], [ 83.2266229, 17.6046293 ], [ 83.2266873, 17.6048082 ], [ 83.2267624, 17.6049718 ], [ 83.226859, 17.6051073 ], [ 83.2272077, 17.6055138 ], [ 83.2275215, 17.6058181 ], [ 83.2277763, 17.6060021 ], [ 83.2279372, 17.6061197 ], [ 83.228251, 17.6062783 ], [ 83.2285461, 17.6063703 ], [ 83.2289726, 17.6065007 ], [ 83.2290396, 17.6064572 ], [ 83.2291335, 17.6064802 ], [ 83.2292166, 17.6065927 ], [ 83.2298872, 17.6068663 ], [ 83.2301205, 17.6069378 ], [ 83.2302654, 17.607012 ], [ 83.2305282, 17.6071066 ], [ 83.2307482, 17.6074108 ], [ 83.2308796, 17.6074696 ], [ 83.2309896, 17.6074798 ], [ 83.2310325, 17.6075156 ], [ 83.231113, 17.6076971 ], [ 83.2312149, 17.6077176 ], [ 83.2313704, 17.6077815 ], [ 83.2315609, 17.6079554 ], [ 83.2315904, 17.608073 ], [ 83.2316118, 17.6080985 ], [ 83.2317165, 17.6081164 ], [ 83.2317808, 17.6082749 ], [ 83.2320115, 17.6084641 ], [ 83.2323736, 17.6088757 ], [ 83.2325453, 17.6090879 ], [ 83.2328618, 17.6093666 ], [ 83.2331783, 17.6096043 ], [ 83.2334197, 17.60975 ], [ 83.2338113, 17.609975 ], [ 83.2342243, 17.6103994 ], [ 83.2344416, 17.6105988 ], [ 83.2346293, 17.6107138 ], [ 83.2347768, 17.6108775 ], [ 83.2350974, 17.6111561 ], [ 83.2353629, 17.611367 ], [ 83.2355788, 17.6114897 ], [ 83.2357049, 17.6115741 ], [ 83.2359476, 17.6116508 ], [ 83.2360613, 17.6116502 ], [ 83.236126, 17.6116431 ], [ 83.2361609, 17.611601 ], [ 83.2362346, 17.6115345 ], [ 83.2362655, 17.6114616 ], [ 83.2362199, 17.6113721 ], [ 83.2362413, 17.6113248 ], [ 83.2363084, 17.611321 ], [ 83.2363687, 17.6113236 ], [ 83.2363969, 17.611266 ], [ 83.2363795, 17.6111868 ], [ 83.2364331, 17.61116 ], [ 83.2364975, 17.6112034 ], [ 83.2366262, 17.6111868 ], [ 83.2366703, 17.6112116 ], [ 83.2370084, 17.6114399 ], [ 83.2372606, 17.61167 ], [ 83.2373437, 17.6117543 ], [ 83.2374027, 17.6118183 ], [ 83.237455, 17.6118093 ], [ 83.2375047, 17.6118387 ], [ 83.2376012, 17.6119154 ], [ 83.2376575, 17.6119665 ], [ 83.2375556, 17.6120074 ], [ 83.2375208, 17.6120611 ], [ 83.2375905, 17.6121404 ], [ 83.2376763, 17.6121174 ], [ 83.2377085, 17.6122324 ], [ 83.2377031, 17.6123398 ], [ 83.237789, 17.6123909 ], [ 83.2378668, 17.6123986 ], [ 83.2379419, 17.6124753 ], [ 83.2379445, 17.6125443 ], [ 83.2380518, 17.612621 ], [ 83.2380867, 17.6126823 ], [ 83.2380518, 17.612713 ], [ 83.2379365, 17.6126772 ], [ 83.2379231, 17.6127872 ], [ 83.2380035, 17.612938 ], [ 83.2381403, 17.613053 ], [ 83.2381591, 17.6132013 ], [ 83.2381913, 17.6132652 ], [ 83.2382262, 17.6132959 ], [ 83.2382825, 17.613324 ], [ 83.2384166, 17.6133879 ], [ 83.2383308, 17.6135106 ], [ 83.2381806, 17.6134518 ], [ 83.2381242, 17.6134723 ], [ 83.2380089, 17.6134518 ], [ 83.2379606, 17.6134927 ], [ 83.2378533, 17.6136052 ], [ 83.237793, 17.6136889 ], [ 83.1981325, 17.631221 ], [ 83.1947422, 17.6347383 ], [ 83.1935405, 17.6364561 ], [ 83.1962013, 17.6526101 ], [ 83.2011795, 17.658458 ], [ 83.2045698, 17.6624246 ], [ 83.21208, 17.6559635 ], [ 83.2129812, 17.655759 ], [ 83.2131958, 17.6547775 ], [ 83.2129812, 17.6517105 ], [ 83.2190322, 17.6471302 ], [ 83.2301473, 17.6392371 ], [ 83.2354259, 17.6350246 ], [ 83.2371854, 17.6327752 ], [ 83.2383066, 17.6311136 ], [ 83.2387519, 17.6316274 ], [ 83.2393286, 17.6321821 ], [ 83.2405865, 17.6333222 ], [ 83.2411686, 17.6337311 ], [ 83.2415333, 17.6339075 ], [ 83.2420027, 17.6341197 ], [ 83.2424024, 17.6342552 ], [ 83.2430005, 17.6344162 ], [ 83.2430702, 17.6344724 ], [ 83.2431614, 17.634521 ], [ 83.2432553, 17.6345031 ], [ 83.2436791, 17.6342181 ], [ 83.243722, 17.6343651 ], [ 83.243899, 17.6346539 ], [ 83.244068, 17.6349044 ], [ 83.2442772, 17.635247 ], [ 83.2444409, 17.6354361 ], [ 83.2450309, 17.6360189 ], [ 83.2452831, 17.6362311 ], [ 83.2455459, 17.6364049 ], [ 83.2457605, 17.6365353 ], [ 83.2461145, 17.6367423 ], [ 83.2465464, 17.6370439 ], [ 83.2469648, 17.637297 ], [ 83.2472972, 17.6375769 ], [ 83.2477695, 17.6378465 ], [ 83.2481664, 17.6380357 ], [ 83.2484722, 17.6382018 ], [ 83.2488906, 17.6383654 ], [ 83.2492501, 17.6384984 ], [ 83.2494378, 17.6386415 ], [ 83.2497731, 17.6388179 ], [ 83.2499421, 17.6388383 ], [ 83.2501647, 17.638938 ], [ 83.2503578, 17.6390351 ], [ 83.2505992, 17.6391911 ], [ 83.2507896, 17.6392524 ], [ 83.2510391, 17.6393316 ], [ 83.2512107, 17.6393981 ], [ 83.2514656, 17.639485 ], [ 83.2517928, 17.6396972 ], [ 83.2517606, 17.6397687 ], [ 83.2520235, 17.6399017 ], [ 83.2521307, 17.6398914 ], [ 83.2521602, 17.6398505 ], [ 83.2522434, 17.6398173 ], [ 83.2523507, 17.6399017 ], [ 83.2523105, 17.6399835 ], [ 83.2523936, 17.6400346 ], [ 83.2525143, 17.6399886 ], [ 83.2526591, 17.6400857 ], [ 83.2527423, 17.6402212 ], [ 83.2530239, 17.6403618 ], [ 83.2533056, 17.6404487 ], [ 83.2533565, 17.6405356 ], [ 83.2537615, 17.6409471 ], [ 83.25385, 17.6410187 ], [ 83.2540432, 17.6411107 ], [ 83.2544053, 17.6412922 ], [ 83.2549444, 17.6415043 ], [ 83.2551455, 17.6415197 ], [ 83.2553735, 17.6415708 ], [ 83.2554889, 17.6415759 ], [ 83.2557008, 17.641512 ], [ 83.2558322, 17.6416475 ], [ 83.2559878, 17.641673 ], [ 83.2561702, 17.6416909 ], [ 83.2562372, 17.6417599 ], [ 83.2563606, 17.6419158 ], [ 83.2566167, 17.6421369 ], [ 83.2569239, 17.6423274 ], [ 83.2570003, 17.6424245 ], [ 83.2573061, 17.6425855 ], [ 83.2574978, 17.6426136 ], [ 83.2576025, 17.6426239 ], [ 83.2581148, 17.6430073 ], [ 83.2581845, 17.6431811 ], [ 83.2583052, 17.6433345 ], [ 83.2584849, 17.6434086 ], [ 83.2586485, 17.6434009 ], [ 83.2587558, 17.6434955 ], [ 83.2587048, 17.6436156 ], [ 83.2587826, 17.6437179 ], [ 83.2589194, 17.643815 ], [ 83.259024, 17.6438482 ], [ 83.2590562, 17.6438022 ], [ 83.2591876, 17.6436923 ], [ 83.2592761, 17.6436693 ], [ 83.2593217, 17.6436974 ], [ 83.2593057, 17.6437639 ], [ 83.2592037, 17.6438431 ], [ 83.2592869, 17.6438968 ], [ 83.2594156, 17.6438431 ], [ 83.2594773, 17.6438917 ], [ 83.2594854, 17.6439505 ], [ 83.2593432, 17.6440093 ], [ 83.2594612, 17.6442879 ], [ 83.2594505, 17.6444566 ], [ 83.2595551, 17.6446022 ], [ 83.2596731, 17.6446406 ], [ 83.259649, 17.6447761 ], [ 83.2595336, 17.6447428 ], [ 83.259531, 17.6448809 ], [ 83.2595685, 17.6452208 ], [ 83.2595819, 17.6453537 ], [ 83.2596704, 17.6455147 ], [ 83.2597616, 17.6455556 ], [ 83.2598689, 17.6455378 ], [ 83.2599145, 17.6454866 ], [ 83.2599628, 17.6454943 ], [ 83.2599977, 17.6457013 ], [ 83.2598501, 17.6458189 ], [ 83.2597375, 17.6459212 ], [ 83.2596436, 17.6461026 ], [ 83.2596463, 17.6462688 ], [ 83.259775, 17.6466419 ], [ 83.2599172, 17.6468592 ], [ 83.2601371, 17.6470714 ], [ 83.2603705, 17.6472912 ], [ 83.2605958, 17.6474573 ], [ 83.2607219, 17.6475647 ], [ 83.2607862, 17.6475877 ], [ 83.2608318, 17.6478688 ], [ 83.2608372, 17.6481398 ], [ 83.2608882, 17.6483289 ], [ 83.2607782, 17.648587 ], [ 83.2607138, 17.6487839 ], [ 83.2607004, 17.6489807 ], [ 83.2607326, 17.6491212 ], [ 83.2608104, 17.6492823 ], [ 83.261202, 17.6496887 ], [ 83.2624653, 17.6507264 ], [ 83.2629588, 17.6511302 ], [ 83.2631573, 17.6512938 ], [ 83.2632968, 17.6513245 ], [ 83.2633638, 17.6513117 ], [ 83.2636589, 17.6511583 ], [ 83.2637769, 17.6511634 ], [ 83.2638359, 17.6512018 ], [ 83.2637769, 17.6512785 ], [ 83.2639807, 17.6514957 ], [ 83.2643294, 17.6517079 ], [ 83.2647935, 17.6519583 ], [ 83.2660729, 17.6527507 ], [ 83.2673067, 17.6533999 ], [ 83.2686129, 17.6541053 ], [ 83.2703483, 17.6548976 ], [ 83.2727891, 17.6561065 ], [ 83.2757905, 17.6575941 ], [ 83.277196, 17.6582918 ], [ 83.2774669, 17.6584733 ], [ 83.27847, 17.6590228 ], [ 83.2790413, 17.6593346 ], [ 83.2793498, 17.6594879 ], [ 83.2795966, 17.6596029 ], [ 83.2799962, 17.6596515 ], [ 83.280192, 17.6596362 ], [ 83.2805085, 17.6596847 ], [ 83.2810315, 17.6599837 ], [ 83.2813212, 17.6600885 ], [ 83.2815894, 17.660132 ], [ 83.2821071, 17.660247 ], [ 83.2828259, 17.6608374 ], [ 83.2829306, 17.6610572 ], [ 83.2829896, 17.6612591 ], [ 83.283125, 17.6615913 ], [ 83.2832953, 17.6618699 ], [ 83.2834703, 17.6621121 ], [ 83.283691, 17.6624079 ], [ 83.28375, 17.662643 ], [ 83.2837687, 17.6627517 ], [ 83.2837701, 17.6628539 ], [ 83.2837178, 17.66296 ], [ 83.2836212, 17.6631082 ], [ 83.2835837, 17.6633139 ], [ 83.2836413, 17.6635312 ], [ 83.2837325, 17.6638481 ], [ 83.2838988, 17.6642723 ], [ 83.2841878, 17.6648812 ], [ 83.2845479, 17.6656882 ], [ 83.2847826, 17.6660639 ], [ 83.2849556, 17.6663067 ], [ 83.2851179, 17.6664945 ], [ 83.2853673, 17.6667412 ], [ 83.2855806, 17.6669303 ], [ 83.2858756, 17.667136 ], [ 83.2860453, 17.6672427 ], [ 83.2861747, 17.667322 ], [ 83.2865301, 17.6675392 ], [ 83.2868734, 17.6678261 ], [ 83.2871, 17.6680663 ], [ 83.2873535, 17.6683168 ], [ 83.2876955, 17.6686234 ], [ 83.2879946, 17.6688624 ], [ 83.2881682, 17.6689966 ], [ 83.2883406, 17.6691512 ], [ 83.2885122, 17.6693288 ], [ 83.2886034, 17.6694298 ], [ 83.2886879, 17.6695256 ], [ 83.2888006, 17.6696706 ], [ 83.2888636, 17.6697518 ], [ 83.2889729, 17.6698923 ], [ 83.28904, 17.6699633 ], [ 83.2891526, 17.6700866 ], [ 83.289229, 17.6701824 ], [ 83.2893162, 17.6702597 ], [ 83.289453, 17.6704303 ], [ 83.2895321, 17.6705121 ], [ 83.2896072, 17.6705836 ], [ 83.2897045, 17.6706463 ], [ 83.289789, 17.6707165 ], [ 83.2899445, 17.6708533 ], [ 83.2901296, 17.6710168 ], [ 83.2903683, 17.6711804 ], [ 83.2905668, 17.6712954 ], [ 83.290996, 17.6716072 ], [ 83.2914144, 17.6720212 ], [ 83.291574, 17.6721873 ], [ 83.2916719, 17.6722908 ], [ 83.2918073, 17.6723969 ], [ 83.2919468, 17.6724633 ], [ 83.2920916, 17.6725221 ], [ 83.2922083, 17.6725809 ], [ 83.2923317, 17.6726282 ], [ 83.2923927, 17.6726575 ], [ 83.2924236, 17.6726729 ], [ 83.2924604, 17.6727253 ], [ 83.2924899, 17.6727725 ], [ 83.2925624, 17.6728345 ], [ 83.2926522, 17.6729118 ], [ 83.2927769, 17.6730256 ], [ 83.2929379, 17.6731572 ], [ 83.2930505, 17.6732568 ], [ 83.2931149, 17.6733163 ], [ 83.2932115, 17.6733859 ], [ 83.2932718, 17.673423 ], [ 83.293361, 17.6734773 ], [ 83.2934488, 17.6735392 ], [ 83.2935722, 17.6736287 ], [ 83.2937144, 17.6737258 ], [ 83.2938646, 17.6738842 ], [ 83.2939625, 17.6740248 ], [ 83.2940336, 17.674136 ], [ 83.2940872, 17.6742522 ], [ 83.2941368, 17.6743698 ], [ 83.2942119, 17.6745359 ], [ 83.2943159, 17.6746969 ], [ 83.2944158, 17.6748253 ], [ 83.2944721, 17.6748745 ], [ 83.2945371, 17.6749001 ], [ 83.2945794, 17.6749231 ], [ 83.2946075, 17.6749685 ], [ 83.2946216, 17.6750068 ], [ 83.2946263, 17.6750751 ], [ 83.2946277, 17.6751493 ], [ 83.294627, 17.6751703 ], [ 83.294627, 17.675187 ], [ 83.2946263, 17.6752087 ], [ 83.2946263, 17.6752362 ], [ 83.2946371, 17.6753179 ], [ 83.2946652, 17.6753869 ], [ 83.2946987, 17.6754508 ], [ 83.2947256, 17.6755326 ], [ 83.2947645, 17.6756335 ], [ 83.2947926, 17.6757217 ], [ 83.2948342, 17.6758099 ], [ 83.2948878, 17.6758776 ], [ 83.2949294, 17.6759204 ], [ 83.2949804, 17.6759702 ], [ 83.2950333, 17.6760188 ], [ 83.2951192, 17.6761453 ], [ 83.2951426, 17.6761958 ], [ 83.2951735, 17.6762648 ], [ 83.2952151, 17.676335 ], [ 83.295262, 17.6764156 ], [ 83.2953224, 17.6766206 ], [ 83.2953157, 17.6767491 ], [ 83.2952781, 17.6768494 ], [ 83.2952231, 17.6769605 ], [ 83.2951916, 17.6770366 ], [ 83.2951708, 17.6771075 ], [ 83.2951829, 17.6772276 ], [ 83.2952144, 17.6773272 ], [ 83.2952312, 17.6774997 ], [ 83.2952587, 17.6776735 ], [ 83.2952593, 17.6778051 ], [ 83.2952701, 17.6779297 ], [ 83.2952908, 17.6780185 ], [ 83.2953076, 17.6781169 ], [ 83.295325, 17.678214 ], [ 83.2953512, 17.678283 ], [ 83.2953887, 17.6783373 ], [ 83.2954018, 17.6783591 ], [ 83.2954092, 17.6783753 ], [ 83.295431, 17.6784166 ], [ 83.2954511, 17.6784753 ], [ 83.2954806, 17.678598 ], [ 83.2955275, 17.6787475 ], [ 83.2955557, 17.6788727 ], [ 83.2955879, 17.6790056 ], [ 83.2956067, 17.6791104 ], [ 83.2956281, 17.6792152 ], [ 83.2956389, 17.6793097 ], [ 83.295655, 17.6794234 ], [ 83.295659, 17.6795218 ], [ 83.2956563, 17.6797301 ], [ 83.2956871, 17.680084 ], [ 83.2950515, 17.6894012 ], [ 83.29665, 17.6922198 ], [ 83.2962638, 17.692414 ], [ 83.2962209, 17.692529 ], [ 83.2962933, 17.6927258 ], [ 83.2962933, 17.6929174 ], [ 83.2962906, 17.6930707 ], [ 83.296355, 17.6932189 ], [ 83.2963684, 17.6932496 ], [ 83.2965159, 17.6933697 ], [ 83.2967868, 17.6936201 ], [ 83.2971892, 17.694006 ], [ 83.2975647, 17.6944429 ], [ 83.2977256, 17.6946116 ], [ 83.2978045, 17.6945879 ], [ 83.2979984, 17.6947707 ], [ 83.2980873, 17.6948386 ], [ 83.2981548, 17.6948837 ], [ 83.2982285, 17.6949293 ], [ 83.298298, 17.6949607 ], [ 83.3003897, 17.6965396 ], [ 83.3012018, 17.6971643 ], [ 83.3034897, 17.6989032 ], [ 83.303723, 17.699045 ], [ 83.3039913, 17.6991851 ], [ 83.3042041, 17.6984787 ], [ 83.3042431, 17.6984897 ], [ 83.3040623, 17.6990917 ], [ 83.3042442, 17.6991413 ], [ 83.304425, 17.6985392 ], [ 83.304475, 17.6985535 ], [ 83.3045355, 17.6983831 ], [ 83.3045992, 17.6984019 ], [ 83.3045764, 17.6984643 ], [ 83.3046916, 17.6984979 ], [ 83.3043932, 17.699521 ], [ 83.304486, 17.6995471 ], [ 83.3045237, 17.6994334 ], [ 83.3047423, 17.6994756 ], [ 83.3047946, 17.6994743 ], [ 83.3048321, 17.6994385 ], [ 83.3049198, 17.6991105 ], [ 83.3049971, 17.6987959 ], [ 83.305103, 17.6987179 ], [ 83.3051272, 17.6986055 ], [ 83.3050628, 17.6985978 ], [ 83.3053042, 17.697715 ], [ 83.3054011, 17.6977399 ], [ 83.3054162, 17.6977156 ], [ 83.305445, 17.6977112 ], [ 83.3055255, 17.6977188 ], [ 83.3056006, 17.6977342 ], [ 83.3056613, 17.6976014 ], [ 83.3057329, 17.697521 ], [ 83.3057991, 17.6974863 ], [ 83.3058473, 17.6975042 ], [ 83.3058822, 17.6975783 ], [ 83.305842, 17.6976856 ], [ 83.3056891, 17.698189 ], [ 83.3054906, 17.6988278 ], [ 83.305378, 17.6992903 ], [ 83.3053055, 17.6995688 ], [ 83.3053324, 17.699625 ], [ 83.3054128, 17.6996506 ], [ 83.305622, 17.6995663 ], [ 83.3057991, 17.6995024 ], [ 83.3059895, 17.6994411 ], [ 83.3060673, 17.6994794 ], [ 83.3060458, 17.6995356 ], [ 83.3059224, 17.6996123 ], [ 83.3056194, 17.6997707 ], [ 83.3053565, 17.6999368 ], [ 83.3052063, 17.7000415 ], [ 83.3050936, 17.7003788 ], [ 83.3050266, 17.7006165 ], [ 83.3051205, 17.7008183 ], [ 83.3052948, 17.7010228 ], [ 83.3055657, 17.7012808 ], [ 83.3057106, 17.7013754 ], [ 83.3059251, 17.7014623 ], [ 83.3060807, 17.7015236 ], [ 83.3062899, 17.701567 ], [ 83.306593, 17.7016079 ], [ 83.3068344, 17.7015977 ], [ 83.3070785, 17.7015466 ], [ 83.3074057, 17.7014495 ], [ 83.3076793, 17.7012911 ], [ 83.3078268, 17.7011582 ], [ 83.3078375, 17.7009998 ], [ 83.3078241, 17.7007493 ], [ 83.3077383, 17.700573 ], [ 83.3075961, 17.7004759 ], [ 83.3075103, 17.7003737 ], [ 83.3074159, 17.7003083 ], [ 83.3073753, 17.700242 ], [ 83.3073793, 17.7001668 ], [ 83.3074379, 17.7001208 ], [ 83.3075237, 17.7001259 ], [ 83.3077168, 17.700292 ], [ 83.3079368, 17.7004964 ], [ 83.3080146, 17.7006574 ], [ 83.3080173, 17.7009844 ], [ 83.3079985, 17.7014367 ], [ 83.3080242, 17.7018608 ], [ 83.308028, 17.7019222 ], [ 83.3080012, 17.7023617 ], [ 83.3080307, 17.7025431 ], [ 83.3080387, 17.7027475 ], [ 83.3080763, 17.7029264 ], [ 83.3081647, 17.7030018 ], [ 83.3082721, 17.7030388 ], [ 83.3083445, 17.7030593 ], [ 83.3084202, 17.7031034 ], [ 83.3084692, 17.7031711 ], [ 83.3084679, 17.7032369 ], [ 83.3084384, 17.703325 ], [ 83.3084384, 17.7034655 ], [ 83.3084759, 17.7036316 ], [ 83.3085644, 17.7037722 ], [ 83.3087119, 17.7039459 ], [ 83.3088702, 17.7041273 ], [ 83.3090016, 17.7042679 ], [ 83.3090928, 17.7043522 ], [ 83.3093128, 17.7045898 ], [ 83.3096185, 17.7048658 ], [ 83.3098412, 17.7050319 ], [ 83.309935, 17.7050855 ], [ 83.3101416, 17.7051443 ], [ 83.3102784, 17.7051864 ], [ 83.3104151, 17.7052427 ], [ 83.310619, 17.7053129 ], [ 83.310851, 17.7054458 ], [ 83.3111072, 17.7055914 ], [ 83.3119467, 17.7061945 ], [ 83.3122122, 17.7064372 ], [ 83.3125462, 17.7067387 ], [ 83.3127433, 17.7068818 ], [ 83.3131537, 17.7070479 ], [ 83.313489, 17.7072037 ], [ 83.3139262, 17.7074337 ], [ 83.3141971, 17.7076049 ], [ 83.3144331, 17.7078348 ], [ 83.314822, 17.7083229 ], [ 83.3150554, 17.708572 ], [ 83.3152351, 17.7087164 ], [ 83.315396, 17.7087624 ], [ 83.3155543, 17.7088339 ], [ 83.3158198, 17.7090511 ], [ 83.3161765, 17.709373 ], [ 83.3164662, 17.7096107 ], [ 83.3167264, 17.7098202 ], [ 83.317008, 17.7100501 ], [ 83.3173808, 17.7103159 ], [ 83.3175123, 17.7103925 ], [ 83.3176182, 17.7104257 ], [ 83.3179682, 17.7105305 ], [ 83.3182177, 17.7106327 ], [ 83.3183558, 17.7106838 ], [ 83.3184591, 17.7107426 ], [ 83.3185691, 17.7107528 ], [ 83.3187501, 17.7107362 ], [ 83.3188172, 17.7107489 ], [ 83.3188936, 17.7107873 ], [ 83.3189929, 17.7108397 ], [ 83.3192208, 17.710993 ], [ 83.3196326, 17.7113034 ], [ 83.3198458, 17.7114503 ], [ 83.3202025, 17.7116969 ], [ 83.3209026, 17.7121568 ], [ 83.3219446, 17.7128518 ], [ 83.3226071, 17.7132772 ], [ 83.3232361, 17.7136758 ], [ 83.3235499, 17.7138725 ], [ 83.323853, 17.7140718 ], [ 83.3245839, 17.7144078 ], [ 83.3251861, 17.7146837 ], [ 83.3259411, 17.7151053 ], [ 83.3266143, 17.7154605 ], [ 83.3277248, 17.7159932 ], [ 83.3283041, 17.7163266 ], [ 83.3284087, 17.7163637 ], [ 83.3285697, 17.7163943 ], [ 83.328689, 17.7164135 ], [ 83.3288084, 17.7164556 ], [ 83.330242, 17.7170995 ], [ 83.3311004, 17.7175262 ], [ 83.3313096, 17.7176207 ], [ 83.3317521, 17.7178532 ], [ 83.3324549, 17.7182211 ], [ 83.3331925, 17.7186018 ], [ 83.3333212, 17.7186261 ], [ 83.3334634, 17.7186401 ], [ 83.3338657, 17.7186529 ], [ 83.3340991, 17.7186453 ], [ 83.3343351, 17.7186427 ], [ 83.3345094, 17.7186683 ], [ 83.3347589, 17.7187756 ], [ 83.3350861, 17.7189595 ], [ 83.3353892, 17.7191281 ], [ 83.3357298, 17.719307 ], [ 83.3362958, 17.7195523 ], [ 83.3366042, 17.719726 ], [ 83.3370629, 17.7200147 ], [ 83.3372694, 17.7200914 ], [ 83.337763, 17.7202664 ], [ 83.3378555, 17.7202894 ], [ 83.3379896, 17.7202932 ], [ 83.3380674, 17.7203085 ], [ 83.338123, 17.7203252 ], [ 83.3381666, 17.7203609 ], [ 83.3381948, 17.7204439 ], [ 83.3382377, 17.7205066 ], [ 83.3383088, 17.7205577 ], [ 83.3383798, 17.7206139 ], [ 83.3384536, 17.7206688 ], [ 83.3385488, 17.7208055 ], [ 83.3387017, 17.721006 ], [ 83.338868, 17.7212411 ], [ 83.3392569, 17.7215157 ], [ 83.3398122, 17.7218722 ], [ 83.3404988, 17.7222861 ], [ 83.3407791, 17.7223716 ], [ 83.3410406, 17.7224598 ], [ 83.3412123, 17.722585 ], [ 83.34162, 17.7228839 ], [ 83.3424917, 17.7234307 ], [ 83.343114, 17.7237781 ], [ 83.3433607, 17.724077 ], [ 83.3435538, 17.7242993 ], [ 83.343806, 17.7246161 ], [ 83.3441144, 17.7249968 ], [ 83.3444229, 17.7252881 ], [ 83.3445865, 17.7254362 ], [ 83.344856, 17.7256342 ], [ 83.3450049, 17.7257249 ], [ 83.3451578, 17.7257914 ], [ 83.3453026, 17.7258195 ], [ 83.3454636, 17.7258348 ], [ 83.3455387, 17.7258604 ], [ 83.345595, 17.72596 ], [ 83.345654, 17.7262589 ], [ 83.3457586, 17.7264863 ], [ 83.3458793, 17.7266243 ], [ 83.3460912, 17.726821 ], [ 83.3462629, 17.7269538 ], [ 83.3464171, 17.7271889 ], [ 83.346507, 17.7273358 ], [ 83.3465928, 17.7274559 ], [ 83.3466679, 17.7275772 ], [ 83.3467001, 17.727682 ], [ 83.3467188, 17.7277816 ], [ 83.3466142, 17.7280856 ], [ 83.3464989, 17.7282951 ], [ 83.3464091, 17.7283909 ], [ 83.346279, 17.7284586 ], [ 83.3462253, 17.7285698 ], [ 83.3462019, 17.728587 ], [ 83.3461784, 17.7285902 ], [ 83.3461576, 17.7285864 ], [ 83.3461368, 17.7285672 ], [ 83.3461207, 17.7284982 ], [ 83.3460724, 17.7284714 ], [ 83.3459665, 17.7284535 ], [ 83.345823, 17.728474 ], [ 83.3456835, 17.7285493 ], [ 83.3455615, 17.7286477 ], [ 83.3455407, 17.7286605 ], [ 83.3455145, 17.7286566 ], [ 83.3454334, 17.7285717 ], [ 83.3453764, 17.7285538 ], [ 83.3453013, 17.7285608 ], [ 83.3451256, 17.7286336 ], [ 83.3449325, 17.7287831 ], [ 83.3447796, 17.728967 ], [ 83.3446321, 17.7292021 ], [ 83.3445275, 17.7294244 ], [ 83.3444229, 17.7295777 ], [ 83.3441761, 17.7299353 ], [ 83.3438382, 17.7304667 ], [ 83.3436477, 17.7307478 ], [ 83.3435404, 17.7309751 ], [ 83.3435109, 17.7311616 ], [ 83.3434761, 17.731435 ], [ 83.3434412, 17.7317646 ], [ 83.3433956, 17.7324211 ], [ 83.3433956, 17.7328197 ], [ 83.343409, 17.733185 ], [ 83.3433584, 17.7338844 ], [ 83.3433473, 17.7340383 ], [ 83.3433513, 17.7341111 ], [ 83.3433513, 17.7343066 ], [ 83.3433683, 17.734424 ], [ 83.343358, 17.7346208 ], [ 83.3433259, 17.7347306 ], [ 83.3432883, 17.7349299 ], [ 83.3431971, 17.735285 ], [ 83.3431971, 17.7357347 ], [ 83.3432159, 17.7362405 ], [ 83.3432695, 17.7365598 ], [ 83.3434626, 17.737385 ], [ 83.343637, 17.7380007 ], [ 83.343747, 17.7383788 ], [ 83.3438623, 17.738716 ], [ 83.3440044, 17.7390711 ], [ 83.3441573, 17.7394569 ], [ 83.3443585, 17.7398477 ], [ 83.3446401, 17.7403561 ], [ 83.3449486, 17.740913 ], [ 83.3451886, 17.7412834 ], [ 83.3454193, 17.7416181 ], [ 83.3458149, 17.7421392 ], [ 83.3459933, 17.7423921 ], [ 83.3461878, 17.7426348 ], [ 83.3463795, 17.7428673 ], [ 83.3466075, 17.7431253 ], [ 83.3468851, 17.7434485 ], [ 83.347085, 17.7436631 ], [ 83.3473559, 17.7439735 ], [ 83.347612, 17.744257 ], [ 83.3478346, 17.7444754 ], [ 83.3479178, 17.7445508 ], [ 83.3480264, 17.7446683 ], [ 83.3481552, 17.7447858 ], [ 83.3483282, 17.7449634 ], [ 83.348418, 17.7450375 ], [ 83.3485347, 17.7450988 ], [ 83.3486138, 17.7451307 ], [ 83.3487104, 17.7451741 ], [ 83.3487976, 17.7452137 ], [ 83.3489558, 17.7453274 ], [ 83.3490658, 17.7453925 ], [ 83.349224, 17.7455037 ], [ 83.3493313, 17.7455484 ], [ 83.3495513, 17.7456569 ], [ 83.3496518, 17.7456748 ], [ 83.3497243, 17.7456531 ], [ 83.349794, 17.7455803 ], [ 83.349849, 17.7455369 ], [ 83.3498792, 17.7455433 ], [ 83.3498879, 17.7455918 ], [ 83.3498651, 17.7456787 ], [ 83.3498892, 17.7458281 ], [ 83.3499107, 17.7459009 ], [ 83.3499281, 17.7460401 ], [ 83.3499509, 17.7461538 ], [ 83.3499818, 17.746247 ], [ 83.3500917, 17.7463748 ], [ 83.3502513, 17.7465076 ], [ 83.3504337, 17.7465549 ], [ 83.3505048, 17.7466021 ], [ 83.3506013, 17.7466698 ], [ 83.3506322, 17.7467209 ], [ 83.3506188, 17.7467643 ], [ 83.3505718, 17.7468448 ], [ 83.3504927, 17.746924 ], [ 83.3504257, 17.7470696 ], [ 83.3503881, 17.7472535 ], [ 83.3503868, 17.7473749 ], [ 83.3504042, 17.7474809 ], [ 83.3504498, 17.7477159 ], [ 83.3504927, 17.7478437 ], [ 83.3505544, 17.7479484 ], [ 83.3506174, 17.7479918 ], [ 83.3506778, 17.7480033 ], [ 83.3507422, 17.7480493 ], [ 83.3507462, 17.7481132 ], [ 83.3507153, 17.7481936 ], [ 83.3506577, 17.748315 ], [ 83.3506161, 17.7484184 ], [ 83.3505705, 17.7484925 ], [ 83.3504605, 17.7486253 ], [ 83.3503211, 17.7487556 ], [ 83.3502459, 17.7488731 ], [ 83.350195, 17.748983 ], [ 83.3501655, 17.7491107 ], [ 83.3501011, 17.7492946 ], [ 83.3500931, 17.7496242 ], [ 83.3501843, 17.7499895 ], [ 83.3502969, 17.7502883 ], [ 83.3504042, 17.7506766 ], [ 83.3506107, 17.7511441 ], [ 83.3508253, 17.7515298 ], [ 83.3511016, 17.7519794 ], [ 83.3512102, 17.7521391 ], [ 83.3513001, 17.7522987 ], [ 83.3514566, 17.7525255 ], [ 83.3516058, 17.7527611 ], [ 83.3518513, 17.7531175 ], [ 83.3521758, 17.7535632 ], [ 83.3523837, 17.753834 ], [ 83.352503, 17.7539975 ], [ 83.352676, 17.7541993 ], [ 83.3528048, 17.7543653 ], [ 83.352904, 17.7545135 ], [ 83.3529925, 17.7546284 ], [ 83.353132, 17.7547587 ], [ 83.3532286, 17.7548123 ], [ 83.3532795, 17.7548047 ], [ 83.3533144, 17.7547817 ], [ 83.353356, 17.7547063 ], [ 83.3534163, 17.7546386 ], [ 83.3535035, 17.7546233 ], [ 83.3536282, 17.7545978 ], [ 83.3537167, 17.7545671 ], [ 83.3538535, 17.7545109 ], [ 83.3539769, 17.75447 ], [ 83.3540587, 17.7544419 ], [ 83.3541298, 17.7544419 ], [ 83.3541499, 17.7544892 ], [ 83.3541325, 17.754539 ], [ 83.3540064, 17.7546169 ], [ 83.3537087, 17.7547319 ], [ 83.3535933, 17.7547919 ], [ 83.353588, 17.7548404 ], [ 83.353596, 17.7549017 ], [ 83.3536966, 17.7551227 ], [ 83.3538213, 17.7552964 ], [ 83.3539809, 17.7554714 ], [ 83.3541311, 17.7556029 ], [ 83.3542237, 17.7557409 ], [ 83.3542612, 17.7559082 ], [ 83.3542854, 17.7560589 ], [ 83.3543202, 17.7562198 ], [ 83.3543712, 17.756391 ], [ 83.3544543, 17.756672 ], [ 83.354677, 17.757073 ], [ 83.355259, 17.7577065 ], [ 83.3556721, 17.7581152 ], [ 83.3559564, 17.7583656 ], [ 83.3562576, 17.7586198 ], [ 83.3563265, 17.7586721 ], [ 83.3564097, 17.7587436 ], [ 83.3567932, 17.7590168 ], [ 83.3598456, 17.7614257 ], [ 83.3602157, 17.7617016 ], [ 83.3605671, 17.7619264 ], [ 83.3608836, 17.7621588 ], [ 83.3612484, 17.7624117 ], [ 83.3619189, 17.7628357 ], [ 83.3622569, 17.7630324 ], [ 83.3627585, 17.7633006 ], [ 83.3631742, 17.7635279 ], [ 83.3633968, 17.7636735 ], [ 83.3637455, 17.7638753 ], [ 83.3643571, 17.7642329 ], [ 83.3663043, 17.7651934 ], [ 83.366771, 17.7654488 ], [ 83.3669883, 17.7655484 ], [ 83.367231, 17.7656646 ], [ 83.3674255, 17.7657604 ], [ 83.3676454, 17.7658524 ], [ 83.3679673, 17.7660082 ], [ 83.3683589, 17.7662023 ], [ 83.3687022, 17.7663428 ], [ 83.3689168, 17.7664296 ], [ 83.3692333, 17.7665727 ], [ 83.3698744, 17.7668945 ], [ 83.3706897, 17.7673645 ], [ 83.3712289, 17.76774 ], [ 83.371717, 17.7680797 ], [ 83.3723608, 17.7684245 ], [ 83.3725955, 17.768542 ], [ 83.372739, 17.768611 ], [ 83.3728865, 17.7686391 ], [ 83.3730447, 17.7686442 ], [ 83.3731909, 17.7685918 ], [ 83.3732727, 17.7685905 ], [ 83.373372, 17.7686519 ], [ 83.3734658, 17.7687489 ], [ 83.3735624, 17.7688766 ], [ 83.3736402, 17.7689788 ], [ 83.3737421, 17.769081 ], [ 83.3738601, 17.7691857 ], [ 83.3740479, 17.7693287 ], [ 83.3742169, 17.769413 ], [ 83.3743456, 17.7694335 ], [ 83.3745038, 17.769459 ], [ 83.3745897, 17.7694896 ], [ 83.3746299, 17.7695561 ], [ 83.3747721, 17.7697068 ], [ 83.3749276, 17.769814 ], [ 83.3751047, 17.7699162 ], [ 83.3752777, 17.7700324 ], [ 83.3754359, 17.7701039 ], [ 83.3755553, 17.7701435 ], [ 83.3756813, 17.7702023 ], [ 83.3758986, 17.7703172 ], [ 83.3761293, 17.7705164 ], [ 83.3762902, 17.7706608 ], [ 83.3763894, 17.7707565 ], [ 83.3764833, 17.770874 ], [ 83.376596, 17.7710465 ], [ 83.3767381, 17.7712291 ], [ 83.3768897, 17.7714487 ], [ 83.3770519, 17.7716275 ], [ 83.3771539, 17.771745 ], [ 83.3772612, 17.7718446 ], [ 83.3774301, 17.7720005 ], [ 83.3775991, 17.7721345 ], [ 83.3778164, 17.7722955 ], [ 83.3779451, 17.772381 ], [ 83.3780766, 17.7724755 ], [ 83.3782482, 17.7725637 ], [ 83.378495, 17.7726262 ], [ 83.3786063, 17.7726275 ], [ 83.3787082, 17.7726186 ], [ 83.3788329, 17.7725739 ], [ 83.3789322, 17.7725445 ], [ 83.379073, 17.7724985 ], [ 83.3791199, 17.7724985 ], [ 83.3791468, 17.7725138 ], [ 83.3791709, 17.7725381 ], [ 83.379183, 17.7725917 ], [ 83.3791682, 17.7726441 ], [ 83.379124, 17.7726799 ], [ 83.3790448, 17.772782 ], [ 83.3790556, 17.7729455 ], [ 83.3791521, 17.7731422 ], [ 83.379305, 17.7734078 ], [ 83.3794793, 17.7736198 ], [ 83.3797932, 17.773934 ], [ 83.3801016, 17.7742303 ], [ 83.3803993, 17.7744525 ], [ 83.3806434, 17.7746491 ], [ 83.3812764, 17.7750936 ], [ 83.3815125, 17.7752775 ], [ 83.3818638, 17.7755354 ], [ 83.3820704, 17.7756657 ], [ 83.3822715, 17.7757602 ], [ 83.3825156, 17.7758675 ], [ 83.3826591, 17.7759198 ], [ 83.3828294, 17.7759428 ], [ 83.3829944, 17.7759301 ], [ 83.3830923, 17.775939 ], [ 83.3831808, 17.7760131 ], [ 83.3833578, 17.7761178 ], [ 83.3835134, 17.7762021 ], [ 83.3836395, 17.7762378 ], [ 83.3837575, 17.7762685 ], [ 83.383846, 17.7763298 ], [ 83.3839774, 17.7764703 ], [ 83.3841035, 17.7765673 ], [ 83.3842805, 17.7766797 ], [ 83.3844253, 17.7767538 ], [ 83.3845139, 17.776833 ], [ 83.3845648, 17.7768866 ], [ 83.3846949, 17.7769645 ], [ 83.384821, 17.7770922 ], [ 83.3849578, 17.7772085 ], [ 83.3851173, 17.7773438 ], [ 83.3853614, 17.7775481 ], [ 83.3856243, 17.7779197 ], [ 83.385741, 17.7780895 ], [ 83.385812, 17.7782531 ], [ 83.3859127, 17.7784216 ], [ 83.3859864, 17.7785403 ], [ 83.3861246, 17.7786515 ], [ 83.3861741, 17.7787205 ], [ 83.3862573, 17.7788737 ], [ 83.3863968, 17.7791112 ], [ 83.3865255, 17.7793053 ], [ 83.3866784, 17.7795608 ], [ 83.3867669, 17.7797523 ], [ 83.3868447, 17.7799784 ], [ 83.3866382, 17.7800844 ], [ 83.3865496, 17.7801048 ], [ 83.3863726, 17.7801507 ], [ 83.3860829, 17.7802848 ], [ 83.385922, 17.7804419 ], [ 83.3856752, 17.7807944 ], [ 83.3854137, 17.7812975 ], [ 83.3852434, 17.7818058 ], [ 83.3851147, 17.782383 ], [ 83.3850919, 17.7828159 ], [ 83.3851616, 17.7831173 ], [ 83.3852702, 17.7834429 ], [ 83.3853936, 17.7837673 ], [ 83.3854848, 17.7841325 ], [ 83.3855975, 17.7844646 ], [ 83.3857316, 17.7848834 ], [ 83.3859193, 17.7854734 ], [ 83.3861366, 17.7860225 ], [ 83.3864813, 17.7866444 ], [ 83.3868098, 17.7870926 ], [ 83.38718, 17.787583 ], [ 83.3874871, 17.7879418 ], [ 83.3876722, 17.7881704 ], [ 83.3878452, 17.7884003 ], [ 83.387998, 17.7885816 ], [ 83.3883467, 17.788906 ], [ 83.3884943, 17.7890975 ], [ 83.3886525, 17.7893963 ], [ 83.3890226, 17.7899122 ], [ 83.3891433, 17.7901344 ], [ 83.3892533, 17.790349 ], [ 83.3894008, 17.7906197 ], [ 83.3897709, 17.7912914 ], [ 83.3900714, 17.7916796 ], [ 83.390227, 17.7919069 ], [ 83.3904523, 17.7921827 ], [ 83.39064, 17.7923819 ], [ 83.3907768, 17.7925446 ], [ 83.3908439, 17.7926245 ], [ 83.3911094, 17.7929208 ], [ 83.3915064, 17.7933779 ], [ 83.3917424, 17.7936742 ], [ 83.3920535, 17.7940241 ], [ 83.3925015, 17.7945629 ], [ 83.3927804, 17.7948975 ], [ 83.393046, 17.7951682 ], [ 83.3936951, 17.7957326 ], [ 83.3940276, 17.7959982 ], [ 83.3945185, 17.7963634 ], [ 83.3949168, 17.7966124 ], [ 83.3953768, 17.7969099 ], [ 83.3956504, 17.7970581 ], [ 83.3959508, 17.7972521 ], [ 83.3961198, 17.7973696 ], [ 83.3963022, 17.7974794 ], [ 83.3963987, 17.7975356 ], [ 83.3964711, 17.7975714 ], [ 83.396557, 17.7976684 ], [ 83.3967246, 17.7978446 ], [ 83.396911, 17.7980094 ], [ 83.3970183, 17.7981051 ], [ 83.3970934, 17.7981779 ], [ 83.3972584, 17.7983018 ], [ 83.3973616, 17.7983311 ], [ 83.3974394, 17.7983477 ], [ 83.397485, 17.7984256 ], [ 83.3974917, 17.798561 ], [ 83.3974729, 17.7988598 ], [ 83.3974931, 17.7990386 ], [ 83.397536, 17.7991305 ], [ 83.3976299, 17.7992339 ], [ 83.397658, 17.7992812 ], [ 83.3976647, 17.7993386 ], [ 83.3976795, 17.7994306 ], [ 83.3977331, 17.7995314 ], [ 83.3978096, 17.7996655 ], [ 83.3978833, 17.7998034 ], [ 83.3979222, 17.7998596 ], [ 83.3980376, 17.8000614 ], [ 83.3980912, 17.8001916 ], [ 83.3981502, 17.8003244 ], [ 83.3982468, 17.8004598 ], [ 83.3985928, 17.8008147 ], [ 83.3991453, 17.8013 ], [ 83.3997515, 17.8016166 ], [ 83.4002665, 17.8019461 ], [ 83.4005964, 17.8021606 ], [ 83.400988, 17.8024415 ], [ 83.4013528, 17.8026841 ], [ 83.401629, 17.8028986 ], [ 83.402085, 17.8032817 ], [ 83.4022433, 17.8033915 ], [ 83.4023854, 17.8035051 ], [ 83.4025504, 17.8036341 ], [ 83.402895, 17.803915 ], [ 83.4033698, 17.8042419 ], [ 83.4037493, 17.8044819 ], [ 83.4043407, 17.8049263 ], [ 83.4045526, 17.8051306 ], [ 83.4048745, 17.8055137 ], [ 83.4051132, 17.8057818 ], [ 83.4054753, 17.8062032 ], [ 83.4065053, 17.807263 ], [ 83.406921, 17.8076511 ], [ 83.4072804, 17.8079729 ], [ 83.4073958, 17.8080827 ], [ 83.4084526, 17.8091118 ], [ 83.4088576, 17.8095204 ], [ 83.4091124, 17.8097783 ], [ 83.4093511, 17.8100082 ], [ 83.4096435, 17.8102022 ], [ 83.4097722, 17.8103401 ], [ 83.4098929, 17.8106006 ], [ 83.4099653, 17.8107845 ], [ 83.4100565, 17.8109581 ], [ 83.4101397, 17.8111241 ], [ 83.4102041, 17.811285 ], [ 83.410306, 17.8114893 ], [ 83.4105286, 17.8118723 ], [ 83.4107888, 17.8123907 ], [ 83.4109256, 17.8129168 ], [ 83.4110302, 17.8133024 ], [ 83.4111509, 17.8136471 ], [ 83.4113708, 17.8141808 ], [ 83.4115612, 17.8146277 ], [ 83.4117651, 17.8151359 ], [ 83.4120011, 17.8156236 ], [ 83.4121942, 17.8160066 ], [ 83.4124088, 17.8163795 ], [ 83.4126314, 17.8167318 ], [ 83.4128514, 17.8170613 ], [ 83.4129855, 17.8172553 ], [ 83.4130713, 17.8173728 ], [ 83.4131625, 17.8174851 ], [ 83.4133503, 17.8177941 ], [ 83.4134361, 17.8179422 ], [ 83.4135514, 17.8181542 ], [ 83.413825, 17.8185551 ], [ 83.4139591, 17.8188028 ], [ 83.4140986, 17.8190377 ], [ 83.4142649, 17.8193288 ], [ 83.414568, 17.8198114 ], [ 83.4148121, 17.8202583 ], [ 83.4150025, 17.8206592 ], [ 83.4152546, 17.8210678 ], [ 83.4154478, 17.8213972 ], [ 83.4155792, 17.8215759 ], [ 83.4157106, 17.8217138 ], [ 83.4158125, 17.8217904 ], [ 83.4159628, 17.8218159 ], [ 83.4161344, 17.8218747 ], [ 83.4162551, 17.8219921 ], [ 83.4163249, 17.8220892 ], [ 83.4163704, 17.8222092 ], [ 83.4163731, 17.822296 ], [ 83.4163839, 17.8223803 ], [ 83.4163678, 17.8224645 ], [ 83.4163812, 17.8225539 ], [ 83.4163785, 17.8226407 ], [ 83.4164026, 17.8227505 ], [ 83.4164456, 17.8229088 ], [ 83.4165354, 17.8231412 ], [ 83.4165488, 17.8233097 ], [ 83.4165609, 17.8237183 ], [ 83.4165582, 17.8238791 ], [ 83.4165555, 17.8239404 ], [ 83.4165341, 17.8240196 ], [ 83.4164784, 17.8240873 ], [ 83.4164543, 17.8241256 ], [ 83.4164509, 17.8241651 ], [ 83.4164858, 17.824243 ], [ 83.4164938, 17.8242724 ], [ 83.4164697, 17.8243222 ], [ 83.4164214, 17.8243464 ], [ 83.4163785, 17.8244001 ], [ 83.4163731, 17.8244613 ], [ 83.4164187, 17.8246094 ], [ 83.4164375, 17.8248214 ], [ 83.4163812, 17.8249401 ], [ 83.4163731, 17.8251354 ], [ 83.4164576, 17.825521 ], [ 83.4164616, 17.8259551 ], [ 83.4164456, 17.826167 ], [ 83.4164026, 17.8264403 ], [ 83.4163195, 17.8266624 ], [ 83.4162846, 17.8268463 ], [ 83.4162632, 17.8269995 ], [ 83.4162444, 17.8272191 ], [ 83.4161773, 17.8274361 ], [ 83.4161264, 17.8276531 ], [ 83.416125, 17.8278714 ], [ 83.4161156, 17.8280413 ], [ 83.4161156, 17.8281702 ], [ 83.4161183, 17.8283272 ], [ 83.4161089, 17.8284421 ], [ 83.4160982, 17.8285251 ], [ 83.4160687, 17.8286196 ], [ 83.4160459, 17.828723 ], [ 83.4160016, 17.8289554 ], [ 83.4159842, 17.8290881 ], [ 83.4159788, 17.8292209 ], [ 83.4160003, 17.8294558 ], [ 83.4160754, 17.8296907 ], [ 83.4161344, 17.8298848 ], [ 83.4161934, 17.8300457 ], [ 83.4162725, 17.8302614 ], [ 83.4163195, 17.8303623 ], [ 83.4163369, 17.8304312 ], [ 83.4163195, 17.8305487 ], [ 83.4163128, 17.8306368 ], [ 83.416298, 17.8307198 ], [ 83.4162645, 17.8307989 ], [ 83.4162363, 17.8309317 ], [ 83.4162149, 17.8310466 ], [ 83.4162149, 17.831173 ], [ 83.416172, 17.8313045 ], [ 83.4161183, 17.8314117 ], [ 83.4160674, 17.8316517 ], [ 83.4160835, 17.8318688 ], [ 83.4160995, 17.8319913 ], [ 83.4161344, 17.8321292 ], [ 83.4161532, 17.8322492 ], [ 83.4161532, 17.8323705 ], [ 83.4161867, 17.8325046 ], [ 83.4162457, 17.8327012 ], [ 83.4163101, 17.8329335 ], [ 83.4163758, 17.8331557 ], [ 83.4165005, 17.8332859 ], [ 83.4165421, 17.8333344 ], [ 83.4165569, 17.8333893 ], [ 83.4165367, 17.833554 ], [ 83.4165354, 17.833785 ], [ 83.4165609, 17.8339063 ], [ 83.4165488, 17.8339523 ], [ 83.4165059, 17.8339976 ], [ 83.4164744, 17.8340525 ], [ 83.4164295, 17.8340978 ], [ 83.4163919, 17.8341234 ], [ 83.4163678, 17.8341732 ], [ 83.4163637, 17.8342242 ], [ 83.4163731, 17.8342664 ], [ 83.4164348, 17.8344349 ], [ 83.4165099, 17.8346213 ], [ 83.4165126, 17.8347221 ], [ 83.4165019, 17.8348077 ], [ 83.416463, 17.8348945 ], [ 83.4163839, 17.8349417 ], [ 83.4163021, 17.8349634 ], [ 83.416231, 17.834994 ], [ 83.4161867, 17.8350272 ], [ 83.4160325, 17.8350502 ], [ 83.4159628, 17.8350911 ], [ 83.4158313, 17.8352136 ], [ 83.4157602, 17.8352341 ], [ 83.4156033, 17.8352315 ], [ 83.4154183, 17.8352315 ], [ 83.4152761, 17.8352494 ], [ 83.4151702, 17.8352277 ], [ 83.4150615, 17.8352021 ], [ 83.4149905, 17.8352034 ], [ 83.4148899, 17.8352213 ], [ 83.4148121, 17.8352085 ], [ 83.4147316, 17.8351766 ], [ 83.4146954, 17.8351409 ], [ 83.414623, 17.835077 ], [ 83.4145425, 17.83504 ], [ 83.4144641, 17.8350081 ], [ 83.4143896, 17.83498 ], [ 83.414338, 17.8349813 ], [ 83.4140021, 17.835017 ], [ 83.4139035, 17.8350183 ], [ 83.4138458, 17.8350023 ], [ 83.4137727, 17.8349851 ], [ 83.4137084, 17.8349877 ], [ 83.4136386, 17.8350349 ], [ 83.4133597, 17.8353221 ], [ 83.4130794, 17.8356592 ], [ 83.4128192, 17.8360243 ], [ 83.4124812, 17.8364558 ], [ 83.4122962, 17.836623 ], [ 83.4120735, 17.8367354 ], [ 83.4118348, 17.8368069 ], [ 83.41158, 17.836909 ], [ 83.4113869, 17.8370622 ], [ 83.4111804, 17.8372843 ], [ 83.4110785, 17.8374324 ], [ 83.4109658, 17.837652 ], [ 83.41077, 17.8380733 ], [ 83.4105889, 17.8386146 ], [ 83.4105206, 17.838824 ], [ 83.4103838, 17.8393372 ], [ 83.4103502, 17.8396014 ], [ 83.4103194, 17.8399104 ], [ 83.4102939, 17.8401721 ], [ 83.4102979, 17.8407121 ], [ 83.4103261, 17.8413798 ], [ 83.4103382, 17.8417819 ], [ 83.4104025, 17.842493 ], [ 83.4104964, 17.8431823 ], [ 83.4106466, 17.8439202 ], [ 83.4108236, 17.8445993 ], [ 83.4110114, 17.8451585 ], [ 83.4112206, 17.8458861 ], [ 83.4116551, 17.8469227 ], [ 83.4119394, 17.8475406 ], [ 83.4123847, 17.8484393 ], [ 83.4128407, 17.8492767 ], [ 83.4132832, 17.8499839 ], [ 83.4136292, 17.8505047 ], [ 83.4143427, 17.8514826 ], [ 83.4148577, 17.8522229 ], [ 83.4151366, 17.8525599 ], [ 83.4153914, 17.8528816 ], [ 83.4158152, 17.8533335 ], [ 83.4164348, 17.854102 ], [ 83.4168345, 17.8545513 ], [ 83.4172851, 17.8550287 ], [ 83.4177196, 17.855524 ], [ 83.4181514, 17.8559504 ], [ 83.4184733, 17.856272 ], [ 83.4188381, 17.8565912 ], [ 83.4194362, 17.8571554 ], [ 83.4196293, 17.8573328 ], [ 83.4200867, 17.8577592 ], [ 83.4206794, 17.8583106 ], [ 83.421354, 17.8589629 ], [ 83.4222378, 17.8596867 ], [ 83.4228694, 17.860196 ], [ 83.4234676, 17.8606606 ], [ 83.4240657, 17.8611482 ], [ 83.4245378, 17.8615031 ], [ 83.4249669, 17.8618043 ], [ 83.4255382, 17.8621949 ], [ 83.4260103, 17.8625191 ], [ 83.4265709, 17.8629072 ], [ 83.4276196, 17.8635786 ], [ 83.4283465, 17.8640688 ], [ 83.4290922, 17.864541 ], [ 83.4299934, 17.8651282 ], [ 83.4307739, 17.8656413 ], [ 83.4315464, 17.8661162 ], [ 83.4324208, 17.8666727 ], [ 83.4333596, 17.8672343 ], [ 83.4342661, 17.8677781 ], [ 83.4351593, 17.8682631 ], [ 83.4361142, 17.868789 ], [ 83.4370422, 17.8693072 ], [ 83.4376733, 17.8696449 ], [ 83.4378388, 17.8697335 ], [ 83.4391022, 17.8704892 ], [ 83.4399873, 17.8710176 ], [ 83.4405935, 17.8714618 ], [ 83.4408697, 17.8717043 ], [ 83.4411058, 17.8719009 ], [ 83.4414867, 17.8720847 ], [ 83.4417763, 17.8722225 ], [ 83.4421116, 17.8723629 ], [ 83.4424067, 17.8724982 ], [ 83.4428117, 17.8726718 ], [ 83.4431657, 17.8728786 ], [ 83.4434178, 17.873047 ], [ 83.4436941, 17.8732053 ], [ 83.443847, 17.8733202 ], [ 83.4439704, 17.873407 ], [ 83.4440428, 17.8734912 ], [ 83.4440696, 17.8736418 ], [ 83.4440911, 17.8737822 ], [ 83.4441206, 17.8739507 ], [ 83.4441313, 17.8741371 ], [ 83.4441501, 17.8743694 ], [ 83.4441555, 17.87452 ], [ 83.4441662, 17.8746221 ], [ 83.4441689, 17.8747268 ], [ 83.4441769, 17.8748671 ], [ 83.4442171, 17.8751429 ], [ 83.4442654, 17.8753152 ], [ 83.4442922, 17.8755079 ], [ 83.4443217, 17.8756483 ], [ 83.4444049, 17.8759138 ], [ 83.4445202, 17.8761563 ], [ 83.4446973, 17.876432 ], [ 83.4449092, 17.8767332 ], [ 83.4450513, 17.8769144 ], [ 83.4451613, 17.8770268 ], [ 83.4453946, 17.8772795 ], [ 83.4455878, 17.8774709 ], [ 83.4457406, 17.8776547 ], [ 83.4458372, 17.8778385 ], [ 83.4458721, 17.8780351 ], [ 83.4458962, 17.8781653 ], [ 83.4459016, 17.8782725 ], [ 83.445923, 17.878515 ], [ 83.4460437, 17.8789132 ], [ 83.4461886, 17.8792221 ], [ 83.446387, 17.879559 ], [ 83.4467223, 17.8799623 ], [ 83.4472239, 17.880552 ], [ 83.4476799, 17.8810855 ], [ 83.4479722, 17.8813944 ], [ 83.4483021, 17.8817747 ], [ 83.4485811, 17.8820683 ], [ 83.4489405, 17.8824282 ], [ 83.4491605, 17.8826784 ], [ 83.4494877, 17.8831506 ], [ 83.4499866, 17.8838194 ], [ 83.4503433, 17.8842967 ], [ 83.4509093, 17.8848123 ], [ 83.4514725, 17.8852208 ], [ 83.452127, 17.8856623 ], [ 83.452701, 17.8861167 ], [ 83.4532776, 17.8866247 ], [ 83.4536505, 17.8869412 ], [ 83.453849, 17.8870994 ], [ 83.4540394, 17.8871964 ], [ 83.4542352, 17.8872985 ], [ 83.4544551, 17.8873981 ], [ 83.4547502, 17.8875028 ], [ 83.4549594, 17.8875895 ], [ 83.4550491, 17.8876523 ], [ 83.4551525, 17.8877248 ], [ 83.4551981, 17.8878346 ], [ 83.4551659, 17.8879979 ], [ 83.4551123, 17.8881281 ], [ 83.4550318, 17.8883961 ], [ 83.4550077, 17.8885467 ], [ 83.4550372, 17.8887484 ], [ 83.4551069, 17.888922 ], [ 83.4552357, 17.8891721 ], [ 83.4554315, 17.8895014 ], [ 83.4555763, 17.8897184 ], [ 83.4557667, 17.8900017 ], [ 83.4558247, 17.8901094 ], [ 83.4558794, 17.890211 ], [ 83.4560269, 17.8903871 ], [ 83.4561355, 17.8905198 ], [ 83.4562455, 17.8906373 ], [ 83.4562992, 17.8906896 ], [ 83.4563622, 17.8907508 ], [ 83.4563863, 17.8907891 ], [ 83.4563783, 17.8908185 ], [ 83.4563461, 17.8908644 ], [ 83.4559585, 17.8912192 ], [ 83.4557922, 17.8914834 ], [ 83.4557453, 17.8916927 ], [ 83.4557748, 17.8919467 ], [ 83.4558365, 17.8921905 ], [ 83.4559196, 17.8924751 ], [ 83.4559431, 17.8925791 ], [ 83.4559263, 17.8926869 ], [ 83.4558848, 17.8927603 ], [ 83.4557721, 17.8927852 ], [ 83.4554744, 17.8927507 ], [ 83.4553054, 17.8927456 ], [ 83.4551203, 17.8928171 ], [ 83.455005, 17.892909 ], [ 83.4549379, 17.89308 ], [ 83.4549245, 17.8931821 ], [ 83.4548735, 17.8935522 ], [ 83.4548333, 17.893907 ], [ 83.4547797, 17.8942873 ], [ 83.4529638, 17.8945426 ], [ 83.4512472, 17.8954002 ], [ 83.4502065, 17.8974013 ], [ 83.4493911, 17.8975238 ], [ 83.4499168, 17.9014443 ], [ 83.4497881, 17.9036904 ], [ 83.4490156, 17.9038129 ], [ 83.4491014, 17.9049155 ], [ 83.4480714, 17.9065081 ], [ 83.4437799, 17.9092033 ], [ 83.4439086, 17.9051196 ], [ 83.4433078, 17.9043437 ], [ 83.4429216, 17.9038843 ], [ 83.4425354, 17.9041293 ], [ 83.4423423, 17.9049665 ], [ 83.4412908, 17.9056811 ], [ 83.4394562, 17.9059976 ], [ 83.4373104, 17.9064876 ], [ 83.434478, 17.9068348 ], [ 83.434757, 17.9075494 ], [ 83.4341884, 17.9087336 ], [ 83.434124, 17.9105509 ], [ 83.4338075, 17.9107499 ], [ 83.4335339, 17.9130112 ], [ 83.4331369, 17.9131643 ], [ 83.4331584, 17.9150835 ], [ 83.4315061, 17.9150835 ], [ 83.4314954, 17.9158696 ], [ 83.4327078, 17.9160635 ], [ 83.4335875, 17.9168598 ], [ 83.4341454, 17.9169211 ], [ 83.4348535, 17.9185953 ], [ 83.4358406, 17.9174315 ], [ 83.4360981, 17.914961 ], [ 83.4364199, 17.9149814 ], [ 83.4364199, 17.9143689 ], [ 83.4377932, 17.914226 ], [ 83.4376216, 17.9152469 ], [ 83.4401536, 17.9176561 ], [ 83.4403038, 17.9196365 ], [ 83.4407115, 17.9228419 ], [ 83.4397244, 17.9245977 ], [ 83.4363555, 17.9317024 ], [ 83.4377951, 17.933401 ], [ 83.4342312, 17.9364387 ], [ 83.4307551, 17.9356017 ], [ 83.4302616, 17.9364999 ], [ 83.4291243, 17.9369899 ], [ 83.4286094, 17.9398071 ], [ 83.426485, 17.94044 ], [ 83.4239101, 17.9410524 ], [ 83.4216893, 17.9415117 ], [ 83.4195328, 17.9403175 ], [ 83.4198761, 17.9386843 ], [ 83.416636, 17.9356834 ], [ 83.4159493, 17.9360917 ], [ 83.4147906, 17.9361121 ], [ 83.4135246, 17.9345605 ], [ 83.4126663, 17.9344993 ], [ 83.4126234, 17.9326415 ], [ 83.4132027, 17.9319882 ], [ 83.4119367, 17.9319678 ], [ 83.4120655, 17.9297834 ], [ 83.4144687, 17.9291096 ], [ 83.4132857, 17.9273394 ], [ 83.4121084, 17.9255777 ], [ 83.4107351, 17.9240669 ], [ 83.4091043, 17.9224336 ], [ 83.4081602, 17.9200653 ], [ 83.4095764, 17.9172069 ], [ 83.41331, 17.9168394 ], [ 83.4120225, 17.9153286 ], [ 83.4130525, 17.913491 ], [ 83.4154129, 17.9127968 ], [ 83.4154129, 17.9122659 ], [ 83.4182024, 17.9121434 ], [ 83.4210777, 17.9110409 ], [ 83.4218931, 17.9094483 ], [ 83.4182024, 17.905038 ], [ 83.4174728, 17.9023427 ], [ 83.4172582, 17.8976872 ], [ 83.4181165, 17.8933991 ], [ 83.41331, 17.8942363 ], [ 83.410263, 17.8940117 ], [ 83.3983755, 17.8881716 ], [ 83.3979892, 17.886252 ], [ 83.38696, 17.8842916 ], [ 83.3853721, 17.8677092 ], [ 83.3843422, 17.8675866 ], [ 83.3841276, 17.8657077 ], [ 83.3719741, 17.8653666 ], [ 83.3726395, 17.8664564 ], [ 83.3731841, 17.8670353 ], [ 83.3727765, 17.8679951 ], [ 83.371886, 17.8686077 ], [ 83.3701157, 17.8693634 ], [ 83.3680344, 17.8702211 ], [ 83.3673048, 17.8694961 ], [ 83.3652985, 17.8681176 ], [ 83.3647942, 17.8676172 ], [ 83.3644616, 17.8667799 ], [ 83.3642471, 17.8664429 ], [ 83.3638072, 17.8660855 ], [ 83.3623803, 17.86582 ], [ 83.3608568, 17.8652788 ], [ 83.3592689, 17.8649418 ], [ 83.3576167, 17.8646151 ], [ 83.3558035, 17.8643394 ], [ 83.3546018, 17.8642781 ], [ 83.3531642, 17.8641556 ], [ 83.3524454, 17.8638288 ], [ 83.3505249, 17.8631957 ], [ 83.3486375, 17.8623511 ], [ 83.3463621, 17.8610716 ], [ 83.3447957, 17.8597237 ], [ 83.3426499, 17.8583349 ], [ 83.3398604, 17.8566397 ], [ 83.3375644, 17.8549241 ], [ 83.3369851, 17.854148 ], [ 83.3352899, 17.8521668 ], [ 83.3339166, 17.851309 ], [ 83.3305692, 17.8540867 ], [ 83.3290887, 17.8548424 ], [ 83.3275223, 17.8554755 ], [ 83.3254838, 17.8558227 ], [ 83.324368, 17.8549445 ], [ 83.3228874, 17.8538824 ], [ 83.3214283, 17.8524732 ], [ 83.3202696, 17.8523098 ], [ 83.3191108, 17.8524119 ], [ 83.3171153, 17.8525549 ], [ 83.3153987, 17.8521872 ], [ 83.3131671, 17.8503694 ], [ 83.3119654, 17.8488171 ], [ 83.3106351, 17.8475304 ], [ 83.3101415, 17.8468972 ], [ 83.3076095, 17.8415866 ], [ 83.3061933, 17.8385023 ], [ 83.3058715, 17.8350298 ], [ 83.3061719, 17.8328237 ], [ 83.3070087, 17.8305972 ], [ 83.3074593, 17.8296576 ], [ 83.3064937, 17.8283298 ], [ 83.3057642, 17.8272063 ], [ 83.3060431, 17.8252248 ], [ 83.3062362, 17.8232638 ], [ 83.3070516, 17.8227531 ], [ 83.308382, 17.82165 ], [ 83.3097768, 17.8198523 ], [ 83.3107209, 17.8184223 ], [ 83.3100772, 17.8170536 ], [ 83.3085322, 17.8138463 ], [ 83.3066225, 17.8098218 ], [ 83.3059358, 17.8085347 ], [ 83.3048844, 17.8071864 ], [ 83.3037686, 17.8060627 ], [ 83.3010864, 17.8031208 ], [ 83.2990265, 17.800567 ], [ 83.2976103, 17.7970121 ], [ 83.2971811, 17.7954594 ], [ 83.2980609, 17.7950303 ], [ 83.2984793, 17.7946626 ], [ 83.2963121, 17.7944991 ], [ 83.2943165, 17.794213 ], [ 83.2917845, 17.7939168 ], [ 83.2906794, 17.7938555 ], [ 83.2892525, 17.7937636 ], [ 83.2862699, 17.7941722 ], [ 83.2823431, 17.794591 ], [ 83.2813239, 17.7945706 ], [ 83.2806587, 17.7946625 ], [ 83.2793283, 17.7947647 ], [ 83.2780731, 17.7948668 ], [ 83.2770967, 17.7952244 ], [ 83.2765603, 17.7958884 ], [ 83.2755732, 17.7970325 ], [ 83.2742429, 17.7986057 ], [ 83.2723868, 17.8003934 ], [ 83.2707238, 17.8020789 ], [ 83.2698655, 17.802559 ], [ 83.2668828, 17.8044386 ], [ 83.2641041, 17.8061853 ], [ 83.2607352, 17.8083407 ], [ 83.2586431, 17.8082691 ], [ 83.2566798, 17.8079422 ], [ 83.2553386, 17.8080445 ], [ 83.2354259, 17.8084121 ], [ 83.2325935, 17.8176665 ], [ 83.2316493, 17.823223 ], [ 83.2333659, 17.8254292 ], [ 83.2350612, 17.8274106 ], [ 83.2350397, 17.8298618 ], [ 83.2337952, 17.8306585 ], [ 83.2324648, 17.8300048 ], [ 83.2308984, 17.8304134 ], [ 83.2283664, 17.8305564 ], [ 83.2248688, 17.8309036 ], [ 83.2238603, 17.8300661 ], [ 83.2226801, 17.8299027 ], [ 83.2222295, 17.8294329 ], [ 83.2202124, 17.8298618 ], [ 83.2192772, 17.8306053 ], [ 83.2181311, 17.8315164 ], [ 83.217144, 17.8314756 ], [ 83.2169294, 17.8304134 ], [ 83.2157063, 17.8314756 ], [ 83.2144618, 17.8316186 ], [ 83.2129598, 17.8311692 ], [ 83.2098055, 17.8319454 ], [ 83.2075524, 17.832211 ], [ 83.2061577, 17.8321497 ], [ 83.2038617, 17.8311692 ], [ 83.2020807, 17.830393 ], [ 83.1992483, 17.8294533 ], [ 83.1950211, 17.8291265 ], [ 83.1921244, 17.8276148 ], [ 83.1893778, 17.8274719 ], [ 83.1894636, 17.8239379 ], [ 83.1901932, 17.8217112 ], [ 83.1903005, 17.8198931 ], [ 83.1914163, 17.8185653 ], [ 83.1915879, 17.8149904 ], [ 83.1913304, 17.8137238 ], [ 83.1915879, 17.8114766 ], [ 83.1919742, 17.8103121 ], [ 83.1915235, 17.8091476 ], [ 83.1916737, 17.8077992 ], [ 83.1919312, 17.8063487 ], [ 83.191266, 17.8050208 ], [ 83.1908154, 17.8045305 ], [ 83.1909442, 17.8012412 ], [ 83.191266, 17.8004853 ], [ 83.1914189, 17.7986067 ], [ 83.1915021, 17.7975842 ], [ 83.1906652, 17.7960315 ], [ 83.1906438, 17.7908623 ], [ 83.1884336, 17.7842832 ], [ 83.185172, 17.7781944 ], [ 83.1844425, 17.7765189 ], [ 83.1838417, 17.7751294 ], [ 83.1787777, 17.7725548 ], [ 83.1779623, 17.7718192 ], [ 83.1783485, 17.7705931 ], [ 83.1798935, 17.7692853 ], [ 83.1807947, 17.7678141 ], [ 83.1810522, 17.7656072 ], [ 83.182168, 17.7652393 ], [ 83.1817388, 17.7599876 ], [ 83.1820285, 17.7598854 ], [ 83.1814384, 17.7575967 ], [ 83.1793248, 17.7567078 ], [ 83.1750226, 17.7581076 ], [ 83.1735313, 17.7592418 ], [ 83.1667828, 17.7619494 ], [ 83.1637465, 17.7609175 ], [ 83.1638109, 17.7591192 ], [ 83.1639075, 17.7572289 ], [ 83.162545, 17.7546029 ], [ 83.1610643, 17.7529579 ], [ 83.1594657, 17.742147 ], [ 83.157835, 17.7364245 ], [ 83.1532628, 17.7343236 ], [ 83.1502819, 17.7337267 ], [ 83.1450462, 17.7336449 ], [ 83.1410121, 17.7380596 ], [ 83.1320857, 17.741493 ], [ 83.1313991, 17.7445994 ], [ 83.1298541, 17.7445994 ], [ 83.1290388, 17.7437614 ], [ 83.1288028, 17.7418199 ], [ 83.1268501, 17.7414725 ], [ 83.125391, 17.7423513 ], [ 83.1222797, 17.7424739 ], [ 83.117044, 17.7364245 ], [ 83.1174088, 17.7296186 ], [ 83.1182671, 17.7270842 ], [ 83.1191254, 17.7261644 ], [ 83.1170869, 17.7252446 ], [ 83.1158638, 17.7226897 ], [ 83.1162071, 17.7179069 ], [ 83.1160784, 17.7152906 ], [ 83.1111431, 17.7064193 ], [ 83.1060362, 17.700246 ], [ 83.0969381, 17.706542 ], [ 83.0923891, 17.7107937 ], [ 83.0899858, 17.711734 ], [ 83.0886125, 17.7127969 ], [ 83.086338, 17.711734 ], [ 83.0850935, 17.7103849 ], [ 83.0846643, 17.7058061 ], [ 83.0841923, 17.7044161 ], [ 83.0853081, 17.70413 ], [ 83.0852651, 17.7021676 ], [ 83.0844068, 17.7017587 ], [ 83.0841923, 17.7004095 ], [ 83.0838919, 17.7004504 ], [ 83.0838919, 17.6992034 ], [ 83.0835271, 17.6992852 ], [ 83.0833984, 17.6984266 ], [ 83.0827761, 17.6978542 ], [ 83.0826688, 17.6966686 ], [ 83.0817247, 17.6958713 ], [ 83.0811453, 17.6927437 ], [ 83.0775404, 17.6961781 ], [ 83.075695, 17.6943178 ], [ 83.0746006, 17.6924779 ], [ 83.0742359, 17.694972 ], [ 83.0716395, 17.6957283 ], [ 83.0704808, 17.6912718 ], [ 83.0692792, 17.6929072 ], [ 83.0691558, 17.6982938 ], [ 83.0685282, 17.6991217 ], [ 83.0653095, 17.6990604 ], [ 83.0633783, 17.6999599 ], [ 83.0613184, 17.7023311 ], [ 83.0600309, 17.7015134 ], [ 83.0564474, 17.7004096 ], [ 83.0543017, 17.6959123 ], [ 83.0514693, 17.6957896 ], [ 83.048079, 17.6976294 ], [ 83.046577, 17.6998372 ], [ 83.0454612, 17.6994283 ], [ 83.0429292, 17.7000416 ], [ 83.039453, 17.7018405 ], [ 83.0376077, 17.7018813 ], [ 83.0353761, 17.7042934 ], [ 83.0336165, 17.7046205 ], [ 83.033874, 17.7060923 ], [ 83.032887, 17.706174 ], [ 83.032887, 17.7050293 ], [ 83.031342, 17.7055199 ], [ 83.0290246, 17.7057243 ], [ 83.0286384, 17.7051111 ], [ 83.0239606, 17.7051111 ], [ 83.0233598, 17.7058879 ], [ 83.0226302, 17.7057652 ], [ 83.0219436, 17.7052746 ], [ 83.0203557, 17.705479 ], [ 83.0168796, 17.7056835 ], [ 83.0163646, 17.7062558 ], [ 83.0143476, 17.7062558 ], [ 83.0126524, 17.7065215 ], [ 83.0080819, 17.7067464 ], [ 83.0077386, 17.6990604 ], [ 82.9994988, 17.7035984 ], [ 82.9986405, 17.7008184 ], [ 83.0002284, 17.6978747 ], [ 82.9949498, 17.6790261 ] ] ] } }
]
}
